              M50 Cartesian                         M50 Keplerian  
    -----------------------------------       --------------------------------
     X    =        3828641.48                 A    =         6788513.49  meter
     Y    =       -4409970.77  meter          E    =           .0012031
     Z    =        3451738.83                 I    =           51.77693
     XDOT =       5944.270588                 Wp   =           84.25903
     YDOT =       1559.545813  meter/sec      RA   =          158.70587  deg
     ZDOT =      -4585.939370                 TA   =           55.37469
                                              MA   =           55.26130
                                              Ha   =            223.201  n.mi
                                              Hp   =            217.075
 
              M50 Cartesian                         J2K Cartesian  
    -----------------------------------       --------------------------------
     X    =       12561159.72                 X    =         3860903.60
     Y    =      -14468408.04  feet           Y    =        -4366975.95  meter
     Z    =       11324602.45                 Z    =         3470415.42
     XDOT =      19502.200091                 XDOT =        5948.665790
     YDOT =       5116.620123  feet/sec       YDOT =        1626.043542  meter/sec
     ZDOT =     -15045.732841                 ZDOT =       -4557.053170
 
              TDR Cartesian                         TDR Cartesian  
    -----------------------------------       --------------------------------
     X    =       18775455.69                 X    =         5722758.89
     Y    =       -3559289.63  feet           Y    =        -1084871.48  meter
     Z    =       11409553.30                 Z    =         3477631.85
     XDOT =      11904.745331                 XDOT =        3628.566377
     YDOT =      14831.594569  feet/sec       YDOT =        4520.670024  meter/sec
     ZDOT =     -14914.967642                 ZDOT =       -4546.082137
  
  
    The mean element set is posted at the UTC for which position is
    just north of the next ascending node relative to the above
    vector time
 
 
    TWO LINE MEAN ELEMENT SET
  
    ISS
    1 25544U 98067A   19136.28604476  .00016717  00000-0  10270-3 0  9048
    2 25544  51.6390 159.7072 0001095 343.9473  16.1644 15.52649164 10292
  
  
    Satellite: ISS
    Catalog Number: 25544
    Epoch time:      19136.28604476   =   yrday.fracday
    Element set:     904
    Inclination:       51.6390  deg
    RA of node:       159.7072  deg
    Eccentricity:     .0001095     
    Arg of perigee:   343.9473  deg
    Mean anomaly:      16.1644  deg
    Mean motion:   15.52649164  rev/day
    Decay rate:    1.67170E-04  rev/day^2
    Epoch rev:            1029
    Checksum:              314
 
 
    Coasting Arc #6 (Orbit 1043)
    ---------------------------------------
 
    Vector Time (GMT): 2019/137/05:55:00.000
    Vector Time (MET): N/A
    Weight (LBS)     : 965984.1
 
              M50 Cartesian                         M50 Keplerian  
    -----------------------------------       --------------------------------
     X    =       -4564436.20                 A    =         6791046.16  meter
     Y    =        4392728.33  meter          E    =           .0006124
     Z    =       -2442096.26                 I    =           51.81702
     XDOT =      -5005.419235                 Wp   =           37.27570
     YDOT =      -2229.184429  meter/sec      RA   =          153.74664  deg
     ZDOT =       5357.473701                 TA   =          295.49129
                                              MA   =          295.55462
                                              Ha   =            223.223  n.mi
                                              Hp   =            217.083
 
              M50 Cartesian                         J2K Cartesian  
    -----------------------------------       --------------------------------
     X    =      -14975184.38                 X    =        -4601355.14
     Y    =       14411838.34  feet           Y    =         4341479.31  meter
     Z    =       -8012126.85                 Z    =        -2464358.42
     XDOT =     -16421.979117                 XDOT =       -5006.143941
     YDOT =      -7313.597207  feet/sec       YDOT =       -2285.162867  meter/sec
     ZDOT =      17577.013456                 ZDOT =        5333.156937
 
              TDR Cartesian                         TDR Cartesian  
    -----------------------------------       --------------------------------
     X    =      -20610239.48                 X    =        -6282000.99
     Y    =        2354387.14  feet           Y    =          717617.20  meter
     Z    =       -8113340.76                 Z    =        -2472946.26
     XDOT =      -8501.947185                 XDOT =       -2591.393502
     YDOT =     -14365.088838  feet/sec       YDOT =       -4378.479078  meter/sec
     ZDOT =      17466.992731                 ZDOT =        5323.939385
  
  
    The mean element set is posted at the UTC for which position is
    just north of the next ascending node relative to the above
    vector time
 
 
    TWO LINE MEAN ELEMENT SET
  
    ISS
    1 25544U 98067A   19137.25148092  .00016717  00000-0  10270-3 0  9054
    2 25544  51.6400 154.9052 0001386 344.5670  15.5440 15.52647361 10449
  
  
    Satellite: ISS
    Catalog Number: 25544
    Epoch time:      19137.25148092   =   yrday.fracday
    Element set:     905
    Inclination:       51.6400  deg
    RA of node:       154.9052  deg
    Eccentricity:     .0001386     
    Arg of perigee:   344.5670  deg
    Mean anomaly:      15.5440  deg
    Mean motion:   15.52647361  rev/day
    Decay rate:    1.67170E-04  rev/day^2
    Epoch rev:            1044
    Checksum:              287
 
 
    Coasting Arc #7 (Orbit 1045)
    ---------------------------------------
 
    Vector Time (GMT): 2019/137/07:45:00.000
    Vector Time (MET): N/A
    Weight (LBS)     : 965984.1
 
              M50 Cartesian                         M50 Keplerian  
    -----------------------------------       --------------------------------
     X    =       -5850885.00                 A    =         6788654.49  meter
     Y    =         -88945.80  meter          E    =           .0012150
     Z    =        3429927.83                 I    =           51.81120
     XDOT =       2793.695291                 Wp   =           83.99189
     YDOT =      -5454.285705  meter/sec      RA   =          153.41453  deg
     ZDOT =       4611.359642                 TA   =          316.05286
                                              MA   =          316.14942
                                              Ha   =            223.298  n.mi
                                              Hp   =            217.088
 
              M50 Cartesian                         J2K Cartesian  
    -----------------------------------       --------------------------------
     X    =      -19195816.93                 X    =        -5866116.51
     Y    =        -291816.92  feet           Y    =         -154459.84  meter
     Z    =       11253044.05                 Z    =         3401468.91
     XDOT =       9165.666966                 XDOT =        2832.079208
     YDOT =     -17894.638141  feet/sec       YDOT =       -5422.830281  meter/sec
     ZDOT =      15129.132684                 ZDOT =        4625.023544
 
              TDR Cartesian                         TDR Cartesian  
    -----------------------------------       --------------------------------
     X    =      -18933087.51                 X    =        -5770805.07
     Y    =       -3603938.61  feet           Y    =        -1098480.49  meter
     Z    =       11124089.56                 Z    =         3390622.50
     XDOT =      11746.055192                 XDOT =        3580.197622
     YDOT =     -14685.642085  feet/sec       YDOT =       -4476.183708  meter/sec
     ZDOT =      15191.465968                 ZDOT =        4630.358827
  
  
    The mean element set is posted at the UTC for which position is
    just north of the next ascending node relative to the above
    vector time
 
 
    TWO LINE MEAN ELEMENT SET
  
    ISS
    1 25544U 98067A   19137.38020437  .00016717  00000-0  10270-3 0  9061
    2 25544  51.6398 154.2659 0001340 343.7622  16.3487 15.52687214 10462
  
  
    Satellite: ISS
    Catalog Number: 25544
    Epoch time:      19137.38020437   =   yrday.fracday
    Element set:     906
    Inclination:       51.6398  deg
    RA of node:       154.2659  deg
    Eccentricity:     .0001340     
    Arg of perigee:   343.7622  deg
    Mean anomaly:      16.3487  deg
    Mean motion:   15.52687214  rev/day
    Decay rate:    1.67170E-04  rev/day^2
    Epoch rev:            1046
    Checksum:              307
 
 
    Coasting Arc #8 (Orbit 1060)
    ---------------------------------------
 
    Vector Time (GMT): 2019/138/07:45:00.000
    Vector Time (MET): N/A
    Weight (LBS)     : 965984.1
 
              M50 Cartesian                         M50 Keplerian  
    -----------------------------------       --------------------------------
     X    =        5209876.50                 A    =         6785937.83  meter
     Y    =         758923.00  meter          E    =           .0008539
     Z    =       -4290478.02                 I    =           51.83037
     XDOT =      -3769.279655                 Wp   =           60.81250
     YDOT =       5620.131307  meter/sec      RA   =          148.45252  deg
     ZDOT =      -3584.196374                 TA   =          172.65630
                                              MA   =          172.64379
                                              Ha   =            223.287  n.mi
                                              Hp   =            217.171
 
